[
    {
        "Altitude(m)": 612502.2331438593,
        "Argument of Periapsis(deg)": 0.0,
        "Eccentricity": 0.0,
        "Inclination(deg)": 60.0,
        "Latitude(deg)": -28.13609783042193,
        "Longitude(deg)": -17.85170144027835,
        "Mean Anomaly(deg)": -32.72730000000003,
        "RAAN(deg)": 100.0,
        "Satellite Name": "Test1 460",
        "Satellite Number": 460,
        "Semi-Major Axis(m)": 6980739.136638005,
        "Time(s)": 0
    },
    {
        "Altitude(m)": 612308.6803889058,
        "Argument of Periapsis(deg)": 0.00010418945913296404,
        "Eccentricity": 0.0,
        "Inclination(deg)": 60.0,
        "Latitude(deg)": -27.623152571506825,
        "Longitude(deg)": -17.49822794691451,
        "Mean Anomaly(deg)": -32.10719385453813,
        "RAAN(deg)": 99.99957995086025,
        "Satellite Name": "Test1 460",
        "Satellite Number": 460,
        "Semi-Major Axis(m)": 6980739.136638005,
        "Time(s)": 10
    }
]